[{"OBJECT_NAME":"STARLINK-30289","OBJECT_ID":"2023-122X","EPOCH":"2026-03-09T22:00:01.999584","MEAN_MOTION":15.154502,"ECCENTRICITY":0.00025448,"INCLINATION":43.0011,"RA_OF_ASC_NODE":79.8606,"ARG_OF_PERICENTER":284.0605,"MEAN_ANOMALY":121.5991,"EPHEMERIS_TYPE":0,"CLASSIFICATION_TYPE":"U","NORAD_CAT_ID":57653,"ELEMENT_SET_NO":999,"REV_AT_EPOCH":547,"BSTAR":0.0047703811,"MEAN_MOTION_DOT":0.0009282,"MEAN_MOTION_DDOT":0},{"OBJECT_NAME":"FENGYUN 1C DEB","OBJECT_ID":"1999-025FBT","EPOCH":"2026-03-07T08:06:46.128096","MEAN_MOTION":15.13951464,"ECCENTRICITY":0.0011424,"INCLINATION":98.245,"RA_OF_ASC_NODE":104.3614,"ARG_OF_PERICENTER":257.8823,"MEAN_ANOMALY":163.5702,"EPHEMERIS_TYPE":0,"CLASSIFICATION_TYPE":"U","NORAD_CAT_ID":47041,"ELEMENT_SET_NO":999,"REV_AT_EPOCH":72466,"BSTAR":0.0033934,"MEAN_MOTION_DOT":0.00062023,"MEAN_MOTION_DDOT":0}]
